[Satellite]
VERSION=1.1
NAME=ZDPS 2B
NICKNAME=ZDPS 2B
TLE1=1 40902U 15049D   18021.19693869  .00000808  00000-0  44651-4 0  9997
TLE2=2 40902  97.4475  28.1418 0013815 179.1306 180.9953 15.16619845129364
